[
    {
        "Altitude(m)": 717882.2293319333,
        "Argument of Periapsis(deg)": 0.007973084830638947,
        "Eccentricity": 0.0,
        "Inclination(deg)": 45.0,
        "Latitude(deg)": -45.15389268277874,
        "Longitude(deg)": 59.32545362209747,
        "Mean Anomaly(deg)": -90.1085483467634,
        "RAAN(deg)": 249.99247364097928,
        "Satellite Name": "Constellation 1 1116",
        "Satellite Number": 1116,
        "Semi-Major Axis(m)": 7083131.272910544,
        "Time(s)": 133
    },
    {
        "Altitude(m)": 717882.2523529977,
        "Argument of Periapsis(deg)": 0.008033032836884352,
        "Eccentricity": 0.0,
        "Inclination(deg)": 45.0,
        "Latitude(deg)": -45.153966864427346,
        "Longitude(deg)": 59.406982031661364,
        "Mean Anomaly(deg)": -90.04784720651357,
        "RAAN(deg)": 249.9924170518137,
        "Satellite Name": "Constellation 1 1116",
        "Satellite Number": 1116,
        "Semi-Major Axis(m)": 7083131.272910544,
        "Time(s)": 134
    },
    {
        "Altitude(m)": 717882.248967219,
        "Argument of Periapsis(deg)": 0.008092980843129758,
        "Eccentricity": 0.0,
        "Inclination(deg)": 45.0,
        "Latitude(deg)": -45.15397686035434,
        "Longitude(deg)": 59.488510567204244,
        "Mean Anomaly(deg)": -89.9871460662636,
        "RAAN(deg)": 249.99236046264815,
        "Satellite Name": "Constellation 1 1116",
        "Satellite Number": 1116,
        "Semi-Major Axis(m)": 7083131.272910544,
        "Time(s)": 135
    },
    {
        "Altitude(m)": 717882.2191745979,
        "Argument of Periapsis(deg)": 0.008152928849375162,
        "Eccentricity": 0.0,
        "Inclination(deg)": 45.0,
        "Latitude(deg)": -45.15392267051511,
        "Longitude(deg)": 59.570039036881916,
        "Mean Anomaly(deg)": -89.92644492601373,
        "RAAN(deg)": 249.99230387348257,
        "Satellite Name": "Constellation 1 1116",
        "Satellite Number": 1116,
        "Semi-Major Axis(m)": 7083131.272910544,
        "Time(s)": 136
    },
    {
        "Altitude(m)": 717882.162975225,
        "Argument of Periapsis(deg)": 0.008212876855620568,
        "Eccentricity": 0.0,
        "Inclination(deg)": 45.0,
        "Latitude(deg)": -45.153804295149186,
        "Longitude(deg)": 59.651567248851826,
        "Mean Anomaly(deg)": -89.86574378576387,
        "RAAN(deg)": 249.992247284317,
        "Satellite Name": "Constellation 1 1116",
        "Satellite Number": 1116,
        "Semi-Major Axis(m)": 7083131.272910544,
        "Time(s)": 137
    },
    {
        "Altitude(m)": 717882.0803692851,
        "Argument of Periapsis(deg)": 0.008272824861865974,
        "Eccentricity": 0.0,
        "Inclination(deg)": 45.0,
        "Latitude(deg)": -45.1536217347807,
        "Longitude(deg)": 59.73309501127594,
        "Mean Anomaly(deg)": -89.80504264551391,
        "RAAN(deg)": 249.9921906951514,
        "Satellite Name": "Constellation 1 1116",
        "Satellite Number": 1116,
        "Semi-Major Axis(m)": 7083131.272910544,
        "Time(s)": 138
    },
    {
        "Altitude(m)": 717881.9713570653,
        "Argument of Periapsis(deg)": 0.00833277286811138,
        "Eccentricity": 0.0,
        "Inclination(deg)": 45.0,
        "Latitude(deg)": -45.15337499021798,
        "Longitude(deg)": 59.814622132324054,
        "Mean Anomaly(deg)": -89.74434150526407,
        "RAAN(deg)": 249.99213410598585,
        "Satellite Name": "Constellation 1 1116",
        "Satellite Number": 1116,
        "Semi-Major Axis(m)": 7083131.272910544,
        "Time(s)": 139
    },
    {
        "Altitude(m)": 717881.835938951,
        "Argument of Periapsis(deg)": 0.008392720874356788,
        "Eccentricity": 0.0,
        "Inclination(deg)": 45.0,
        "Latitude(deg)": -45.15306406255377,
        "Longitude(deg)": 59.896148420177816,
        "Mean Anomaly(deg)": -89.68364036501411,
        "RAAN(deg)": 249.9920775168203,
        "Satellite Name": "Constellation 1 1116",
        "Satellite Number": 1116,
        "Semi-Major Axis(m)": 7083131.272910544,
        "Time(s)": 140
    },
    {
        "Altitude(m)": 717881.6741154182,
        "Argument of Periapsis(deg)": 0.008452668880602192,
        "Eccentricity": 0.0,
        "Inclination(deg)": 45.0,
        "Latitude(deg)": -45.152688953165246,
        "Longitude(deg)": 59.97767351493657,
        "Mean Anomaly(deg)": -89.62293922476427,
        "RAAN(deg)": 249.99202092765475,
        "Satellite Name": "Constellation 1 1116",
        "Satellite Number": 1116,
        "Semi-Major Axis(m)": 7083131.272910544,
        "Time(s)": 141
    },
    {
        "Altitude(m)": 717881.4858870482,
        "Argument of Periapsis(deg)": 0.008512616886847598,
        "Eccentricity": 0.0,
        "Inclination(deg)": 45.0,
        "Latitude(deg)": -45.15224966371334,
        "Longitude(deg)": 60.05919756100894,
        "Mean Anomaly(deg)": -89.56223808451425,
        "RAAN(deg)": 249.99196433848914,
        "Satellite Name": "Constellation 1 1116",
        "Satellite Number": 1116,
        "Semi-Major Axis(m)": 7083131.272910544,
        "Time(s)": 142
    },
    {
        "Altitude(m)": 717881.271254516,
        "Argument of Periapsis(deg)": 0.008572564893093004,
        "Eccentricity": 0.0,
        "Inclination(deg)": 45.0,
        "Latitude(deg)": -45.151746196143826,
        "Longitude(deg)": 60.140720198534076,
        "Mean Anomaly(deg)": -89.50153694426452,
        "RAAN(deg)": 249.99190774932356,
        "Satellite Name": "Constellation 1 1116",
        "Satellite Number": 1116,
        "Semi-Major Axis(m)": 7083131.272910544,
        "Time(s)": 143
    },
    {
        "Altitude(m)": 717881.0302185956,
        "Argument of Periapsis(deg)": 0.008632512899338408,
        "Eccentricity": 0.0,
        "Inclination(deg)": 45.0,
        "Latitude(deg)": -45.15117855268641,
        "Longitude(deg)": 60.22224123577443,
        "Mean Anomaly(deg)": -89.44083580401455,
        "RAAN(deg)": 249.991851160158,
        "Satellite Name": "Constellation 1 1116",
        "Satellite Number": 1116,
        "Semi-Major Axis(m)": 7083131.272910544,
        "Time(s)": 144
    },
    {
        "Altitude(m)": 717880.7627801576,
        "Argument of Periapsis(deg)": 0.008692460905583814,
        "Eccentricity": 0.0,
        "Inclination(deg)": 45.0,
        "Latitude(deg)": -45.15054673585501,
        "Longitude(deg)": 60.30376048102013,
        "Mean Anomaly(deg)": -89.38013466376462,
        "RAAN(deg)": 249.99179457099245,
        "Satellite Name": "Constellation 1 1116",
        "Satellite Number": 1116,
        "Semi-Major Axis(m)": 7083131.272910544,
        "Time(s)": 145
    },
    {
        "Altitude(m)": 717880.4689401723,
        "Argument of Periapsis(deg)": 0.00875240891182922,
        "Eccentricity": 0.0,
        "Inclination(deg)": 45.0,
        "Latitude(deg)": -45.14985074844761,
        "Longitude(deg)": 60.38527774259348,
        "Mean Anomaly(deg)": -89.31943352351476,
        "RAAN(deg)": 249.9917379818269,
        "Satellite Name": "Constellation 1 1116",
        "Satellite Number": 1116,
        "Semi-Major Axis(m)": 7083131.272910544,
        "Time(s)": 146
    },
    {
        "Altitude(m)": 717880.1486997041,
        "Argument of Periapsis(deg)": 0.008812356918074627,
        "Eccentricity": 0.0,
        "Inclination(deg)": 45.0,
        "Latitude(deg)": -45.14909059354633,
        "Longitude(deg)": 60.466792828852654,
        "Mean Anomaly(deg)": -89.25873238326486,
        "RAAN(deg)": 249.99168139266126,
        "Satellite Name": "Constellation 1 1116",
        "Satellite Number": 1116,
        "Semi-Major Axis(m)": 7083131.272910544,
        "Time(s)": 147
    },
    {
        "Altitude(m)": 717879.8020599157,
        "Argument of Periapsis(deg)": 0.008872304924320031,
        "Eccentricity": 0.0,
        "Inclination(deg)": 45.0,
        "Latitude(deg)": -45.14826627451731,
        "Longitude(deg)": 60.54830538009787,
        "Mean Anomaly(deg)": -89.19803124301491,
        "RAAN(deg)": 249.9916248034957,
        "Satellite Name": "Constellation 1 1116",
        "Satellite Number": 1116,
        "Semi-Major Axis(m)": 7083131.272910544,
        "Time(s)": 148
    },
    {
        "Altitude(m)": 717879.4290220703,
        "Argument of Periapsis(deg)": 0.008932252930565437,
        "Eccentricity": 0.0,
        "Inclination(deg)": 45.0,
        "Latitude(deg)": -45.147377795010165,
        "Longitude(deg)": 60.62981554096199,
        "Mean Anomaly(deg)": -89.13733010276495,
        "RAAN(deg)": 249.99156821433016,
        "Satellite Name": "Constellation 1 1116",
        "Satellite Number": 1116,
        "Semi-Major Axis(m)": 7083131.272910544,
        "Time(s)": 149
    },
    {
        "Altitude(m)": 717879.0295875251,
        "Argument of Periapsis(deg)": 0.008992200936810843,
        "Eccentricity": 0.0,
        "Inclination(deg)": 45.0,
        "Latitude(deg)": -45.14642515895884,
        "Longitude(deg)": 60.71132295183302,
        "Mean Anomaly(deg)": -89.07662896251522,
        "RAAN(deg)": 249.9915116251646,
        "Satellite Name": "Constellation 1 1116",
        "Satellite Number": 1116,
        "Semi-Major Axis(m)": 7083131.272910544,
        "Time(s)": 150
    },
    {
        "Altitude(m)": 717878.6037577324,
        "Argument of Periapsis(deg)": 0.009052148943056249,
        "Eccentricity": 0.0,
        "Inclination(deg)": 45.0,
        "Latitude(deg)": -45.14540837058083,
        "Longitude(deg)": 60.79282742124591,
        "Mean Anomaly(deg)": -89.01592782226525,
        "RAAN(deg)": 249.99145503599905,
        "Satellite Name": "Constellation 1 1116",
        "Satellite Number": 1116,
        "Semi-Major Axis(m)": 7083131.272910544,
        "Time(s)": 151
    }
]